STARLINK-2303
1 27981C 21024E   21325.10280579 -.00023526  00000-0 -15768-2 0  3255
2 27981  53.0526 182.7765 0001840  80.4886 133.6080 15.06410399    15
